[{"OBJECT_NAME":"STARLINK-33807","OBJECT_ID":"2025-071AB","EPOCH":"2026-03-09T12:36:45.050688","MEAN_MOTION":15.30194582,"ECCENTRICITY":0.00010995,"INCLINATION":53.1599,"RA_OF_ASC_NODE":142.8576,"ARG_OF_PERICENTER":99.0724,"MEAN_ANOMALY":261.0401,"EPHEMERIS_TYPE":0,"CLASSIFICATION_TYPE":"U","NORAD_CAT_ID":63518,"ELEMENT_SET_NO":999,"REV_AT_EPOCH":5271,"BSTAR":0.00084338498,"MEAN_MOTION_DOT":0.00024698,"MEAN_MOTION_DDOT":0},{"OBJECT_NAME":"KUIPER-00222","OBJECT_ID":"2026-030U","EPOCH":"2026-03-09T16:13:57.726048","MEAN_MOTION":15.32445377,"ECCENTRICITY":0.00128002,"INCLINATION":51.8817,"RA_OF_ASC_NODE":219.7147,"ARG_OF_PERICENTER":40.1845,"MEAN_ANOMALY":320.0084,"EPHEMERIS_TYPE":0,"CLASSIFICATION_TYPE":"U","NORAD_CAT_ID":67782,"ELEMENT_SET_NO":999,"REV_AT_EPOCH":508,"BSTAR":0.0017317201,"MEAN_MOTION_DOT":0.00055223,"MEAN_MOTION_DDOT":0}]
