STARLINK-33807          
1 63518U 25071AB  26068.52552142  .00024698  00000+0  84338-3 0  9993
2 63518  53.1599 142.8576 0001099  99.0724 261.0401 15.30194582 52717
KUIPER-00222            
1 67782U 26030U   26068.67636257  .00055223  00000+0  17317-2 0  9992
2 67782  51.8817 219.7147 0012800  40.1845 320.0084 15.32445377  5087
